NORAD_CAT_ID,OBJECT_NAME,OBJECT_TYPE,EPOCH,MEAN_MOTION,ECCENTRICITY,INCLINATION,RA_OF_ASC_NODE,ARG_OF_PERICENTER,MEAN_ANOMALY,BSTAR,MEAN_MOTION_DOT,MEAN_MOTION_DDOT,TLE_LINE0,TLE_LINE1,TLE_LINE2,SEMIMAJOR_AXIS,PERIOD,APOGEE,PERIGEE,DECAYED
52460.0,STARLINK-3865,PAYLOAD,2023-03-22 20:12:48,15.08852688,0.0001492,53.2162,240.1623,94.0217,266.0946,0.0010333,0.00016201,0.0,0 STARLINK-3865,1 52460U 22049K   23081.84222544  .00016201  00000-0  10333-2 0  9991,2 52460  53.2162 240.1623 0001492  94.0217 266.0946 15.08852688 48775,6917.842,95.437,540.739,538.674,0.0
52460.0,STARLINK-3865,PAYLOAD,2023-03-23 13:42:03,15.08841378,0.0001346,53.2156,236.8905,78.1432,281.9711,0.00056595,8.731e-05,0.0,0 STARLINK-3865,1 52460U 22049K   23082.57087055  .00008731  00000-0  56595-3 0  9998,2 52460  53.2156 236.8905 0001346  78.1432 281.9711 15.08841378 48885,6917.876,95.437,540.672,538.81,0.0
52460.0,STARLINK-3865,PAYLOAD,2023-03-23 16:52:49,15.08849229,0.000147,53.216,236.2963,79.7336,280.3822,0.00071309,0.00011082,0.0,0 STARLINK-3865,1 52460U 22049K   23082.70334949  .00011082  00000-0  71309-3 0  9993,2 52460  53.2160 236.2963 0001470  79.7336 280.3822 15.08849229 49066,6917.852,95.437,540.734,538.7,0.0
52460.0,STARLINK-3865,PAYLOAD,2023-03-24 11:57:25,15.08892982,0.0001423,53.2156,232.7281,73.4153,286.6995,0.0017211,0.00027249,0.0,0 STARLINK-3865,1 52460U 22049K   23083.49821360  .00027249  00000-0  17211-2 0  9991,2 52460  53.2156 232.7281 0001423  73.4153 286.6995 15.08892982 49188,6917.718,95.434,540.568,538.599,0.0
52460.0,STARLINK-3865,PAYLOAD,2023-03-24 13:32:48,15.08896415,0.0001402,53.2166,232.4323,71.1601,288.9543,0.0016252,0.00025712,0.0,0 STARLINK-3865,1 52460U 22049K   23083.56445061  .00025712  00000-0  16252-2 0  9996,2 52460  53.2166 232.4323 0001402  71.1601 288.9543 15.08896415 49036,6917.708,95.434,540.543,538.603,0.0
52460.0,STARLINK-3865,PAYLOAD,2023-03-24 16:43:34,15.089292,0.0001416,53.2173,231.8361,80.7593,279.3559,0.0030465,0.00048651,0.0,0 STARLINK-3865,1 52460U 22049K   23083.69692249  .00048651  00000-0  30465-2 0  9991,2 52460  53.2173 231.8361 0001416  80.7593 279.3559 15.08929200 49210,6917.608,95.432,540.452,538.493,0.0
52460.0,STARLINK-3865,PAYLOAD,2023-03-24 19:54:19,15.08936338,0.0001266,53.2172,231.241,79.0685,281.0449,0.0025424,0.00040514,0.0,0 STARLINK-3865,1 52460U 22049K   23083.82939417  .00040514  00000-0  25424-2 0  9996,2 52460  53.2172 231.2410 0001266  79.0685 281.0449 15.08936338 49076,6917.586,95.431,540.327,538.575,0.0
52460.0,STARLINK-3865,PAYLOAD,2023-03-25 10:12:50,15.08789253,0.0001613,53.2171,228.5648,106.2355,253.8815,-0.00069693,-0.00011347,0.0,0 STARLINK-3865,1 52460U 22049K   23084.42558392 -.00011347  00000-0 -69693-3 0  9993,2 52460  53.2171 228.5648 0001613 106.2355 253.8815 15.08789253 49324,6918.036,95.441,541.016,538.785,0.0
52460.0,STARLINK-3865,PAYLOAD,2023-03-25 16:34:25,15.08741547,0.0001266,53.2163,227.3764,80.4555,279.658,0.00048782,7.464e-05,0.0,0 STARLINK-3865,1 52460U 22049K   23084.69056859  .00007464  00000-0  48782-3 0  9992,2 52460  53.2163 227.3764 0001266  80.4555 279.6580 15.08741547 49363,6918.181,95.444,540.922,539.17,0.0
52460.0,STARLINK-3865,PAYLOAD,2023-03-25 21:20:35,15.08740693,0.0001382,53.2167,226.4843,83.0661,277.0489,0.0010102,0.00015782,0.0,0 STARLINK-3865,1 52460U 22049K   23084.88930195  .00015782  00000-0  10102-2 0  9993,2 52460  53.2167 226.4843 0001382  83.0661 277.0489 15.08740693 49238,6918.184,95.444,541.005,539.093,0.0
52460.0,STARLINK-3865,PAYLOAD,2023-03-26 02:06:43,15.08814476,8.36e-05,53.2174,225.5958,284.123,75.9669,0.0023407,0.00037135,0.0,0 STARLINK-3865,1 52460U 22049K   23085.08800813  .00037135  00000-0  23407-2 0  9997,2 52460  53.2174 225.5958 0000836 284.1230  75.9669 15.08814476 49429,6917.958,95.439,540.402,539.245,0.0
52460.0,STARLINK-3865,PAYLOAD,2023-03-26 13:14:26,15.08873731,0.0001278,53.2164,223.5105,66.917,293.1957,0.0026027,0.00041416,0.0,0 STARLINK-3865,1 52460U 22049K   23085.55169411  .00041416  00000-0  26027-2 0  9999,2 52460  53.2164 223.5105 0001278  66.9170 293.1957 15.08873731 49490,6917.777,95.435,540.526,538.758,0.0
52460.0,STARLINK-3865,PAYLOAD,2023-03-26 19:35:57,15.08906035,0.000136,53.2163,222.321,67.7476,292.366,0.0023864,0.00037965,0.0,0 STARLINK-3865,1 52460U 22049K   23085.81664319  .00037965  00000-0  23864-2 0  9995,2 52460  53.2163 222.3210 0001360  67.7476 292.3660 15.08906035 49376,6917.679,95.433,540.484,538.603,0.0
52460.0,STARLINK-3865,PAYLOAD,2023-03-27 01:57:30,15.08865629,0.0001245,53.217,221.1333,82.3068,277.8066,-0.00010339,-1.934e-05,0.0,0 STARLINK-3865,1 52460U 22049K   23086.08160229 -.00001934  00000-0 -10339-3 0  9999,2 52460  53.2170 221.1333 0001245  82.3068 277.8066 15.08865629 49572,6917.802,95.436,540.528,538.806,0.0
52460.0,STARLINK-3865,PAYLOAD,2023-03-27 13:05:12,15.08857139,0.0001392,53.2166,219.0517,80.0535,280.0614,-6.1589e-06,-3.86e-06,0.0,0 STARLINK-3865,1 52460U 22049K   23086.54528050 -.00000386  00000-0 -61589-5 0  9995,2 52460  53.2166 219.0517 0001392  80.0535 280.0614 15.08857139 49644,6917.828,95.436,540.656,538.73,0.0
52460.0,STARLINK-3865,PAYLOAD,2023-03-27 14:40:35,15.08857815,0.0001448,53.2163,218.7542,79.2472,280.8683,8.5117e-05,1.068e-05,0.0,0 STARLINK-3865,1 52460U 22049K   23086.61151991  .00001068  00000-0  85117-4 0  9997,2 52460  53.2163 218.7542 0001448  79.2472 280.8683 15.08857815 49495,6917.826,95.436,540.693,538.689,0.0
52460.0,STARLINK-3865,PAYLOAD,2023-03-27 21:02:07,15.08889448,0.0001152,53.2152,217.5637,77.8838,282.2283,0.0029543,0.00047108,0.0,0 STARLINK-3865,1 52460U 22049K   23086.87647349  .00047108  00000-0  29543-2 0  9996,2 52460  53.2152 217.5637 0001152  77.8838 282.2283 15.08889448 49698,6917.729,95.434,540.391,538.797,0.0
52460.0,STARLINK-3865,PAYLOAD,2023-03-28 01:48:16,15.08847521,3e-05,53.2155,216.6722,131.8238,228.2779,-0.00010801,-2.006e-05,0.0,0 STARLINK-3865,1 52460U 22049K   23087.07519344 -.00002006  00000-0 -10801-3 0  9990,2 52460  53.2155 216.6722 0000300 131.8238 228.2779 15.08847521 49725,6917.857,95.437,539.93,539.515,0.0
52460.0,STARLINK-3865,PAYLOAD,2023-03-28 12:55:58,15.0885832,7.92e-05,53.2154,214.5898,125.5904,234.5162,0.0022476,0.00035682,0.0,0 STARLINK-3865,1 52460U 22049K   23087.53887512  .00035682  00000-0  22476-2 0  9990,2 52460  53.2154 214.5898 0000792 125.5904 234.5162 15.08858320 49635,6917.824,95.436,540.237,539.142,0.0
52460.0,STARLINK-3865,PAYLOAD,2023-03-28 17:42:08,15.08882111,0.0001101,53.2152,213.6975,92.4207,267.6911,0.0034297,0.00054783,0.0,0 STARLINK-3865,1 52460U 22049K   23087.73759278  .00054783  00000-0  34297-2 0  9996,2 52460  53.2152 213.6975 0001101  92.4207 267.6911 15.08882111 49669,6917.752,95.435,540.378,538.855,0.0
52460.0,STARLINK-3865,PAYLOAD,2023-03-28 20:52:53,15.08893619,0.0001095,53.215,213.1029,91.5887,268.523,0.0032902,0.00052543,0.0,0 STARLINK-3865,1 52460U 22049K   23087.87006892  .00052543  00000-0  32902-2 0  9991,2 52460  53.2150 213.1029 0001095  91.5887 268.5230 15.08893619 49847,6917.717,95.434,540.339,538.824,0.0
52460.0,STARLINK-3865,PAYLOAD,2023-03-29 08:00:36,15.08839422,0.0001064,53.214,211.0224,74.8017,285.3092,0.00023932,3.523e-05,0.0,0 STARLINK-3865,1 52460U 22049K   23088.33375536  .00003523  00000-0  23932-3 0  9995,2 52460  53.2140 211.0224 0001064  74.8017 285.3092 15.08839422 49918,6917.882,95.438,540.483,539.011,0.0
52460.0,STARLINK-3865,PAYLOAD,2023-03-29 12:46:45,15.08851132,0.0001103,53.2147,210.1284,95.9989,264.1129,0.0023122,0.00036714,0.0,0 STARLINK-3865,1 52460U 22049K   23088.53247638  .00036714  00000-0  23122-2 0  9996,2 52460  53.2147 210.1284 0001103  95.9989 264.1129 15.08851132 49780,6917.846,95.437,540.474,538.948,0.0
52460.0,STARLINK-3865,PAYLOAD,2023-03-29 19:08:18,15.08878672,0.0001208,53.2147,208.9386,81.8362,278.2767,0.0034716,0.00055456,0.0,0 STARLINK-3865,1 52460U 22049K   23088.79743310  .00055456  00000-0  34716-2 0  9997,2 52460  53.2147 208.9386 0001208  81.8362 278.2767 15.08878672 49987,6917.762,95.435,540.463,538.792,0.0
52460.0,STARLINK-3865,PAYLOAD,2023-03-30 11:02:10,15.08847192,9.11e-05,53.2159,205.9667,83.6558,276.4538,0.003097,0.00049356,0.0,0 STARLINK-3865,1 52460U 22049K   23089.45984059  .00049356  00000-0  30970-2 0  9998,2 52460  53.2159 205.9667 0000911  83.6558 276.4538 15.08847192 50088,6917.858,95.437,540.354,539.093,0.0
52460.0,STARLINK-3865,PAYLOAD,2023-03-30 18:59:05,15.08890607,0.0001113,53.216,204.4787,90.7974,269.3146,0.0036298,0.00058037,0.0,0 STARLINK-3865,1 52460U 22049K   23089.79103326  .00058037  00000-0  36298-2 0  9990,2 52460  53.2160 204.4787 0001113  90.7974 269.3146 15.08890607 49974,6917.726,95.434,540.361,538.821,0.0
52460.0,STARLINK-3865,PAYLOAD,2023-03-31 15:39:06,15.08876747,0.0001302,53.2161,200.6115,118.7595,241.3528,0.0033131,0.00052889,0.0,0 STARLINK-3865,1 52460U 22049K   23090.65215361  .00052889  00000-0  33131-2 0  9992,2 52460  53.2161 200.6115 0001302 118.7595 241.3528 15.08876747 50265,6917.768,95.435,540.534,538.732,0.0
52460.0,STARLINK-3865,PAYLOAD,2023-04-01 12:19:07,15.0884838,0.0001382,53.2172,196.7453,116.3103,243.8031,0.0016788,0.00026537,0.0,0 STARLINK-3865,1 52460U 22049K   23091.51327643  .00026537  00000-0  16788-2 0  9995,2 52460  53.2172 196.7453 0001382 116.3103 243.8031 15.08848380 50239,6917.855,95.437,540.676,538.764,0.0
52460.0,STARLINK-3865,PAYLOAD,2023-04-01 15:29:53,15.08855182,0.0001191,53.2169,196.1514,102.2839,257.8286,0.002008,0.00031827,0.0,0 STARLINK-3865,1 52460U 22049K   23091.64575657  .00031827  00000-0  20080-2 0  9997,2 52460  53.2169 196.1514 0001191 102.2839 257.8286 15.08855182 50410,6917.834,95.437,540.523,538.875,0.0
52460.0,STARLINK-3865,PAYLOAD,2023-04-01 20:16:03,15.08822026,0.0001399,53.2167,195.26,102.4809,257.634,-0.00011783,-2.162e-05,0.0,0 STARLINK-3865,1 52460U 22049K   23091.84448054 -.00002162  00000-0 -11783-3 0  9992,2 52460  53.2167 195.2600 0001399 102.4809 257.6340 15.08822026 50446,6917.935,95.439,540.768,538.833,0.0
